{
  "type": "FeatureCollection",
  "features": [
    {
      "type": "Feature",
      "properties": {
        "norad_id": 30040,
        "name": "FENGYUN 1C DEB",
        "group": "fengyun-1c-debris",
        "lat": 39.13061200970285,
        "lon": -160.31222964168703,
        "alt_km": 782.7620532069923,
        "timestamp": "2025-12-22T23:36:20.986759+00:00",
        "meta_object_name": "FENGYUN 1C DEB",
        "meta_object_id": "1999-025NR",
        "meta_epoch": "2025-12-20T14:41:47.852160",
        "meta_mean_motion": 14.37187191,
        "meta_eccentricity": 0.0032291,
        "meta_inclination": 98.2327,
        "meta_ra_of_asc_node": 10.6541,
        "meta_arg_of_pericenter": 288.7824,
        "meta_mean_anomaly": 190.4247,
        "meta_ephemeris_type": 0,
        "meta_classification_type": "U",
        "meta_norad_cat_id": 30040,
        "meta_element_set_no": 999,
        "meta_rev_at_epoch": 98041,
        "meta_bstar": 0.0010647,
        "meta_mean_motion_dot": 3.146e-05,
        "meta_mean_motion_ddot": 0,
        "tle_line1": "1 30040U 99025NR  25354.61235940  .00003146  00000+0  10647-2 0  9994",
        "tle_line2": "2 30040  98.2327  10.6541 0032291 288.7824 190.4247 14.37187191980414"
      },
      "geometry": {
        "type": "Point",
        "coordinates": [
          -160.31222964168703,
          39.13061200970285
        ]
      }
    },
    {
      "type": "Feature",
      "properties": {
        "norad_id": 30041,
        "name": "FENGYUN 1C DEB",
        "group": "fengyun-1c-debris",
        "lat": -74.75650545335668,
        "lon": 141.8248990131086,
        "alt_km": 857.0380835305714,
        "timestamp": "2025-12-22T23:36:20.986769+00:00",
        "meta_object_name": "FENGYUN 1C DEB",
        "meta_object_id": "1999-025NS",
        "meta_epoch": "2025-12-21T19:41:16.073088",
        "meta_mean_motion": 14.13200267,
        "meta_eccentricity": 0.00351461,
        "meta_inclination": 99.467,
        "meta_ra_of_asc_node": 102.8397,
        "meta_arg_of_pericenter": 192.0491,
        "meta_mean_anomaly": 294.7408,
        "meta_ephemeris_type": 0,
        "meta_classification_type": "U",
        "meta_norad_cat_id": 30041,
        "meta_element_set_no": 999,
        "meta_rev_at_epoch": 97415,
        "meta_bstar": 0.00037938154,
        "meta_mean_motion_dot": 6.65e-06,
        "meta_mean_motion_ddot": 0,
        "tle_line1": "1 30041U 99025NS  25355.82032492  .00000665  00000+0  37938-3 0  9992",
        "tle_line2": "2 30041  99.4670 102.8397 0035146 192.0491 294.7408 14.13200267974156"
      },
      "geometry": {
        "type": "Point",
        "coordinates": [
          141.8248990131086,
          -74.75650545335668
        ]
      }
    },
    {
      "type": "Feature",
      "properties": {
        "norad_id": 30043,
        "name": "FENGYUN 1C DEB",
        "group": "fengyun-1c-debris",
        "lat": -44.461883675788236,
        "lon": 103.32963201012718,
        "alt_km": 987.5624326631205,
        "timestamp": "2025-12-22T23:36:20.986780+00:00",
        "meta_object_name": "FENGYUN 1C DEB",
        "meta_object_id": "1999-025NU",
        "meta_epoch": "2025-12-22T05:16:07.735872",
        "meta_mean_motion": 14.23619086,
        "meta_eccentricity": 0.02835079,
        "meta_inclination": 98.6275,
        "meta_ra_of_asc_node": 94.0103,
        "meta_arg_of_pericenter": 103.4721,
        "meta_mean_anomaly": 259.8216,
        "meta_ephemeris_type": 0,
        "meta_classification_type": "U",
        "meta_norad_cat_id": 30043,
        "meta_element_set_no": 999,
        "meta_rev_at_epoch": 97480,
        "meta_bstar": 0.00071213762,
        "meta_mean_motion_dot": 2.413e-05,
        "meta_mean_motion_ddot": 0,
        "tle_line1": "1 30043U 99025NU  25356.21953398  .00002413  00000+0  71214-3 0  9993",
        "tle_line2": "2 30043  98.6275  94.0103 0283507 103.4721 259.8216 14.23619086974800"
      },
      "geometry": {
        "type": "Point",
        "coordinates": [
          103.32963201012718,
          -44.461883675788236
        ]
      }
    },
    {
      "type": "Feature",
      "properties": {
        "norad_id": 30044,
        "name": "FENGYUN 1C DEB",
        "group": "fengyun-1c-debris",
        "lat": 60.20533635832602,
        "lon": 111.63998779745582,
        "alt_km": 662.7544595861982,
        "timestamp": "2025-12-22T23:36:20.986790+00:00",
        "meta_object_name": "FENGYUN 1C DEB",
        "meta_object_id": "1999-025NV",
        "meta_epoch": "2025-12-22T11:28:31.810080",
        "meta_mean_motion": 14.50770219,
        "meta_eccentricity": 0.00801007,
        "meta_inclination": 98.2126,
        "meta_ra_of_asc_node": 276.5373,
        "meta_arg_of_pericenter": 137.0139,
        "meta_mean_anomaly": 223.7352,
        "meta_ephemeris_type": 0,
        "meta_classification_type": "U",
        "meta_norad_cat_id": 30044,
        "meta_element_set_no": 999,
        "meta_rev_at_epoch": 98180,
        "meta_bstar": 0.0016374297,
        "meta_mean_motion_dot": 6.676e-05,
        "meta_mean_motion_ddot": 0,
        "tle_line1": "1 30044U 99025NV  25356.47814595  .00006676  00000+0  16374-2 0  9997",
        "tle_line2": "2 30044  98.2126 276.5373 0080100 137.0139 223.7352 14.50770219981803"
      },
      "geometry": {
        "type": "Point",
        "coordinates": [
          111.63998779745582,
          60.20533635832602
        ]
      }
    },
    {
      "type": "Feature",
      "properties": {
        "norad_id": 30045,
        "name": "FENGYUN 1C DEB",
        "group": "fengyun-1c-debris",
        "lat": -66.9106904016838,
        "lon": 55.2438566272731,
        "alt_km": 887.1168486085253,
        "timestamp": "2025-12-22T23:36:20.986800+00:00",
        "meta_object_name": "FENGYUN 1C DEB",
        "meta_object_id": "1999-025NW",
        "meta_epoch": "2025-12-21T00:57:52.675200",
        "meta_mean_motion": 14.21668731,
        "meta_eccentricity": 0.00941438,
        "meta_inclination": 99.1779,
        "meta_ra_of_asc_node": 30.9376,
        "meta_arg_of_pericenter": 89.8391,
        "meta_mean_anomaly": 341.2192,
        "meta_ephemeris_type": 0,
        "meta_classification_type": "U",
        "meta_norad_cat_id": 30045,
        "meta_element_set_no": 999,
        "meta_rev_at_epoch": 96806,
        "meta_bstar": 0.0013770719,
        "meta_mean_motion_dot": 3.117e-05,
        "meta_mean_motion_ddot": 0,
        "tle_line1": "1 30045U 99025NW  25355.04019300  .00003117  00000+0  13771-2 0  9996",
        "tle_line2": "2 30045  99.1779  30.9376 0094143  89.8391 341.2192 14.21668731968063"
      },
      "geometry": {
        "type": "Point",
        "coordinates": [
          55.2438566272731,
          -66.9106904016838
        ]
      }
    },
    {
      "type": "Feature",
      "properties": {
        "norad_id": 30047,
        "name": "FENGYUN 1C DEB",
        "group": "fengyun-1c-debris",
        "lat": -53.33808549407085,
        "lon": 168.32757742374363,
        "alt_km": 829.9380712910479,
        "timestamp": "2025-12-22T23:36:20.986810+00:00",
        "meta_object_name": "FENGYUN 1C DEB",
        "meta_object_id": "1999-025NY",
        "meta_epoch": "2025-12-22T10:21:13.946688",
        "meta_mean_motion": 13.94371144,
        "meta_eccentricity": 0.01257307,
        "meta_inclination": 99.9194,
        "meta_ra_of_asc_node": 154.1382,
        "meta_arg_of_pericenter": 296.9419,
        "meta_mean_anomaly": 118.1017,
        "meta_ephemeris_type": 0,
        "meta_classification_type": "U",
        "meta_norad_cat_id": 30047,
        "meta_element_set_no": 999,
        "meta_rev_at_epoch": 96051,
        "meta_bstar": 0.00057326102,
        "meta_mean_motion_dot": 7.63e-06,
        "meta_mean_motion_ddot": 0,
        "tle_line1": "1 30047U 99025NY  25356.43141142  .00000763  00000+0  57326-3 0  9991",
        "tle_line2": "2 30047  99.9194 154.1382 0125730 296.9419 118.1017 13.94371144960516"
      },
      "geometry": {
        "type": "Point",
        "coordinates": [
          168.32757742374363,
          -53.33808549407085
        ]
      }
    },
    {
      "type": "Feature",
      "properties": {
        "norad_id": 30048,
        "name": "FENGYUN 1C DEB",
        "group": "fengyun-1c-debris",
        "lat": 56.1683626547693,
        "lon": 55.11691896684318,
        "alt_km": 966.7299942283616,
        "timestamp": "2025-12-22T23:36:20.986821+00:00",
        "meta_object_name": "FENGYUN 1C DEB",
        "meta_object_id": "1999-025NZ",
        "meta_epoch": "2025-12-22T09:56:54.383712",
        "meta_mean_motion": 13.79898259,
        "meta_eccentricity": 0.01863569,
        "meta_inclination": 98.666,
        "meta_ra_of_asc_node": 221.443,
        "meta_arg_of_pericenter": 218.684,
        "meta_mean_anomaly": 320.8847,
        "meta_ephemeris_type": 0,
        "meta_classification_type": "U",
        "meta_norad_cat_id": 30048,
        "meta_element_set_no": 999,
        "meta_rev_at_epoch": 95259,
        "meta_bstar": 0.00019949962,
        "meta_mean_motion_dot": 1.96e-06,
        "meta_mean_motion_ddot": 0,
        "tle_line1": "1 30048U 99025NZ  25356.41451833  .00000196  00000+0  19950-3 0  9992",
        "tle_line2": "2 30048  98.6660 221.4430 0186356 218.6840 320.8847 13.79898259952599"
      },
      "geometry": {
        "type": "Point",
        "coordinates": [
          55.11691896684318,
          56.1683626547693
        ]
      }
    }
  ]
}